STARLINK-30820          
1 58190U 23167R   26068.52241888 -.00000474  00000+0 -77075-5 0  9999
2 58190  42.9985 143.9823 0000351 241.3107 118.7709 15.27569171130965
PELICAN-6               
1 66703U 25276AP  26068.70709364  .00077979  00000+0  29726-2 0  9998
2 66703  97.4276 144.2072 0003569 157.8575 202.2819 15.26377980 15334
