[{"OBJECT_NAME":"STARLINK-30820","OBJECT_ID":"2023-167R","EPOCH":"2026-03-09T12:32:16.991232","MEAN_MOTION":15.27569171,"ECCENTRICITY":3.51e-5,"INCLINATION":42.9985,"RA_OF_ASC_NODE":143.9823,"ARG_OF_PERICENTER":241.3107,"MEAN_ANOMALY":118.7709,"EPHEMERIS_TYPE":0,"CLASSIFICATION_TYPE":"U","NORAD_CAT_ID":58190,"ELEMENT_SET_NO":999,"REV_AT_EPOCH":13096,"BSTAR":-7.7075e-6,"MEAN_MOTION_DOT":-4.74e-6,"MEAN_MOTION_DDOT":0},{"OBJECT_NAME":"PELICAN-6","OBJECT_ID":"2025-276AP","EPOCH":"2026-03-09T16:58:12.890496","MEAN_MOTION":15.2637798,"ECCENTRICITY":0.0003569,"INCLINATION":97.4276,"RA_OF_ASC_NODE":144.2072,"ARG_OF_PERICENTER":157.8575,"MEAN_ANOMALY":202.2819,"EPHEMERIS_TYPE":0,"CLASSIFICATION_TYPE":"U","NORAD_CAT_ID":66703,"ELEMENT_SET_NO":999,"REV_AT_EPOCH":1533,"BSTAR":0.0029725783,"MEAN_MOTION_DOT":0.00077979,"MEAN_MOTION_DDOT":0}]
